[
    {
        "Altitude(m)": 717707.2510674453,
        "Argument of Periapsis(deg)": 0.0011390121186627068,
        "Eccentricity": 0.0,
        "Inclination(deg)": 45.0,
        "Latitude(deg)": -44.72685005967601,
        "Longitude(deg)": 175.07990634752716,
        "Mean Anomaly(deg)": 262.97152166474814,
        "RAAN(deg)": 14.998924805854177,
        "Satellite Name": "Constellation 1 82",
        "Satellite Number": 82,
        "Semi-Major Axis(m)": 7083131.272910544,
        "Time(s)": 19
    },
    {
        "Altitude(m)": 717710.2598593961,
        "Argument of Periapsis(deg)": 0.0011989601249081123,
        "Eccentricity": 0.0,
        "Inclination(deg)": 45.0,
        "Latitude(deg)": -44.73417030128973,
        "Longitude(deg)": 175.16018759167275,
        "Mean Anomaly(deg)": 263.032222804998,
        "RAAN(deg)": 14.99886821668861,
        "Satellite Name": "Constellation 1 82",
        "Satellite Number": 82,
        "Semi-Major Axis(m)": 7083131.272910544,
        "Time(s)": 20
    },
    {
        "Altitude(m)": 717713.2428818491,
        "Argument of Periapsis(deg)": 0.001258908131153518,
        "Eccentricity": 0.0,
        "Inclination(deg)": 45.0,
        "Latitude(deg)": -44.74142818367888,
        "Longitude(deg)": 175.24048999337933,
        "Mean Anomaly(deg)": 263.09292394524783,
        "RAAN(deg)": 14.998811627523041,
        "Satellite Name": "Constellation 1 82",
        "Satellite Number": 82,
        "Semi-Major Axis(m)": 7083131.272910544,
        "Time(s)": 21
    },
    {
        "Altitude(m)": 717716.200123777,
        "Argument of Periapsis(deg)": 0.0013188561373989236,
        "Eccentricity": 0.0,
        "Inclination(deg)": 45.0,
        "Latitude(deg)": -44.74862367583048,
        "Longitude(deg)": 175.3208132140852,
        "Mean Anomaly(deg)": 263.15362508549777,
        "RAAN(deg)": 14.99875503835747,
        "Satellite Name": "Constellation 1 82",
        "Satellite Number": 82,
        "Semi-Major Axis(m)": 7083131.272910544,
        "Time(s)": 22
    },
    {
        "Altitude(m)": 717719.131574239,
        "Argument of Periapsis(deg)": 0.0013788041436443293,
        "Eccentricity": 0.0,
        "Inclination(deg)": 45.0,
        "Latitude(deg)": -44.75575674697994,
        "Longitude(deg)": 175.4011574191633,
        "Mean Anomaly(deg)": 263.2143262257477,
        "RAAN(deg)": 14.9986984491919,
        "Satellite Name": "Constellation 1 82",
        "Satellite Number": 82,
        "Semi-Major Axis(m)": 7083131.272910544,
        "Time(s)": 23
    },
    {
        "Altitude(m)": 717722.0372224032,
        "Argument of Periapsis(deg)": 0.001438752149889735,
        "Eccentricity": 0.0,
        "Inclination(deg)": 45.0,
        "Latitude(deg)": -44.76282736660954,
        "Longitude(deg)": 175.48152226934164,
        "Mean Anomaly(deg)": 263.2750273659976,
        "RAAN(deg)": 14.99864186002633,
        "Satellite Name": "Constellation 1 82",
        "Satellite Number": 82,
        "Semi-Major Axis(m)": 7083131.272910544,
        "Time(s)": 24
    },
    {
        "Altitude(m)": 717724.917057517,
        "Argument of Periapsis(deg)": 0.0014987001561351404,
        "Eccentricity": 0.0,
        "Inclination(deg)": 45.0,
        "Latitude(deg)": -44.76983550445065,
        "Longitude(deg)": 175.56190759309504,
        "Mean Anomaly(deg)": 263.33572850624745,
        "RAAN(deg)": 14.998585270860762,
        "Satellite Name": "Constellation 1 82",
        "Satellite Number": 82,
        "Semi-Major Axis(m)": 7083131.272910544,
        "Time(s)": 25
    },
    {
        "Altitude(m)": 717727.77106894,
        "Argument of Periapsis(deg)": 0.001558648162380546,
        "Eccentricity": 0.0,
        "Inclination(deg)": 45.0,
        "Latitude(deg)": -44.77678113048366,
        "Longitude(deg)": 175.64231321854922,
        "Mean Anomaly(deg)": 263.3964296464974,
        "RAAN(deg)": 14.998528681695193,
        "Satellite Name": "Constellation 1 82",
        "Satellite Number": 82,
        "Semi-Major Axis(m)": 7083131.272910544,
        "Time(s)": 26
    },
    {
        "Altitude(m)": 717730.5992461119,
        "Argument of Periapsis(deg)": 0.0016185961686259519,
        "Eccentricity": 0.0,
        "Inclination(deg)": 45.0,
        "Latitude(deg)": -44.783664214938895,
        "Longitude(deg)": 175.7227389734844,
        "Mean Anomaly(deg)": 263.4571307867473,
        "RAAN(deg)": 14.998472092529623,
        "Satellite Name": "Constellation 1 82",
        "Satellite Number": 82,
        "Semi-Major Axis(m)": 7083131.272910544,
        "Time(s)": 27
    },
    {
        "Altitude(m)": 717733.4015785793,
        "Argument of Periapsis(deg)": 0.0016785441748713573,
        "Eccentricity": 0.0,
        "Inclination(deg)": 45.0,
        "Latitude(deg)": -44.790484728296974,
        "Longitude(deg)": 175.8031846853373,
        "Mean Anomaly(deg)": 263.5178319269972,
        "RAAN(deg)": 14.998415503364054,
        "Satellite Name": "Constellation 1 82",
        "Satellite Number": 82,
        "Semi-Major Axis(m)": 7083131.272910544,
        "Time(s)": 28
    },
    {
        "Altitude(m)": 717736.1780559735,
        "Argument of Periapsis(deg)": 0.001738492181116763,
        "Eccentricity": 0.0,
        "Inclination(deg)": 45.0,
        "Latitude(deg)": -44.797242641289536,
        "Longitude(deg)": 175.8836501812045,
        "Mean Anomaly(deg)": 263.57853306724706,
        "RAAN(deg)": 14.998358914198482,
        "Satellite Name": "Constellation 1 82",
        "Satellite Number": 82,
        "Semi-Major Axis(m)": 7083131.272910544,
        "Time(s)": 29
    },
    {
        "Altitude(m)": 717738.928668031,
        "Argument of Periapsis(deg)": 0.0017984401873621684,
        "Eccentricity": 0.0,
        "Inclination(deg)": 45.0,
        "Latitude(deg)": -44.80393792489948,
        "Longitude(deg)": 175.9641351197474,
        "Mean Anomaly(deg)": 263.639234207497,
        "RAAN(deg)": 14.998302325032915,
        "Satellite Name": "Constellation 1 82",
        "Satellite Number": 82,
        "Semi-Major Axis(m)": 7083131.272910544,
        "Time(s)": 30
    },
    {
        "Altitude(m)": 717741.6534045758,
        "Argument of Periapsis(deg)": 0.0018583881936075745,
        "Eccentricity": 0.0,
        "Inclination(deg)": 45.0,
        "Latitude(deg)": -44.81057055036278,
        "Longitude(deg)": 176.04463966358307,
        "Mean Anomaly(deg)": 263.6999353477469,
        "RAAN(deg)": 14.998245735867346,
        "Satellite Name": "Constellation 1 82",
        "Satellite Number": 82,
        "Semi-Major Axis(m)": 7083131.272910544,
        "Time(s)": 31
    },
    {
        "Altitude(m)": 717744.3522555337,
        "Argument of Periapsis(deg)": 0.0019183361998529795,
        "Eccentricity": 0.0,
        "Inclination(deg)": 45.0,
        "Latitude(deg)": -44.81714048916721,
        "Longitude(deg)": 176.1251634707054,
        "Mean Anomaly(deg)": 263.7606364879968,
        "RAAN(deg)": 14.998189146701774,
        "Satellite Name": "Constellation 1 82",
        "Satellite Number": 82,
        "Semi-Major Axis(m)": 7083131.272910544,
        "Time(s)": 32
    },
    {
        "Altitude(m)": 717747.0252109178,
        "Argument of Periapsis(deg)": 0.0019782842060983856,
        "Eccentricity": 0.0,
        "Inclination(deg)": 45.0,
        "Latitude(deg)": -44.82364771305421,
        "Longitude(deg)": 176.20570636687492,
        "Mean Anomaly(deg)": 263.8213376282466,
        "RAAN(deg)": 14.998132557536206,
        "Satellite Name": "Constellation 1 82",
        "Satellite Number": 82,
        "Semi-Major Axis(m)": 7083131.272910544,
        "Time(s)": 33
    },
    {
        "Altitude(m)": 717749.6722608433,
        "Argument of Periapsis(deg)": 0.0020382322123437906,
        "Eccentricity": 0.0,
        "Inclination(deg)": 45.0,
        "Latitude(deg)": -44.83009219401902,
        "Longitude(deg)": 176.28626817752536,
        "Mean Anomaly(deg)": 263.88203876849656,
        "RAAN(deg)": 14.998075968370635,
        "Satellite Name": "Constellation 1 82",
        "Satellite Number": 82,
        "Semi-Major Axis(m)": 7083131.272910544,
        "Time(s)": 34
    },
    {
        "Altitude(m)": 717752.293395522,
        "Argument of Periapsis(deg)": 0.002098180218589197,
        "Eccentricity": 0.0,
        "Inclination(deg)": 45.0,
        "Latitude(deg)": -44.836473904311376,
        "Longitude(deg)": 176.3668487277657,
        "Mean Anomaly(deg)": 263.9427399087465,
        "RAAN(deg)": 14.998019379205067,
        "Satellite Name": "Constellation 1 82",
        "Satellite Number": 82,
        "Semi-Major Axis(m)": 7083131.272910544,
        "Time(s)": 35
    },
    {
        "Altitude(m)": 717754.888605257,
        "Argument of Periapsis(deg)": 0.002158128224834602,
        "Eccentricity": 0.0,
        "Inclination(deg)": 45.0,
        "Latitude(deg)": -44.84279281643605,
        "Longitude(deg)": 176.44744784238347,
        "Mean Anomaly(deg)": 264.00344104899636,
        "RAAN(deg)": 14.997962790039498,
        "Satellite Name": "Constellation 1 82",
        "Satellite Number": 82,
        "Semi-Major Axis(m)": 7083131.272910544,
        "Time(s)": 36
    },
    {
        "Altitude(m)": 717757.4578804469,
        "Argument of Periapsis(deg)": 0.002218076231080008,
        "Eccentricity": 0.0,
        "Inclination(deg)": 45.0,
        "Latitude(deg)": -44.849048903152976,
        "Longitude(deg)": 176.52806517774985,
        "Mean Anomaly(deg)": 264.06414218924624,
        "RAAN(deg)": 14.997906200873928,
        "Satellite Name": "Constellation 1 82",
        "Satellite Number": 82,
        "Semi-Major Axis(m)": 7083131.272910544,
        "Time(s)": 37
    }
]